STARLINK-36766          
1 68069U 26042A   26092.25003472 -.00075091  00000+0 -48955-3 0  9992
2 68069  53.1589  76.8487 0001305  74.6915  58.8260 15.75260866  5834
STARLINK-36823          
1 68070U 26042B   26091.26483015  .00249621  00000+0  12282-2 0  9992
2 68070  53.1563  81.6298 0001082  38.4869 321.6230 15.80941111  5653
STARLINK-36970          
1 68071U 26042C   26092.24046633  .00390198  00000+0  24213-2 0  9996
2 68071  53.1585  77.0574 0001340 100.8648 259.2524 15.75359469  5802
STARLINK-36972          
1 68072U 26042D   26092.25003472 -.00031368  00000+0 -20127-3 0  9996
2 68072  53.1597  76.7465 0001132  79.6515 103.5158 15.75232426  5847
STARLINK-37074          
1 68073U 26042E   26092.23106130  .00212519  00000+0  13515-2 0  9999
2 68073  53.1574  76.9945 0000849 102.4099 257.7017 15.75315107  5804
STARLINK-37045          
1 68074U 26042F   26092.25003472 -.00098048  00000+0 -64218-3 0  9995
2 68074  53.1584  77.1701 0001291  73.9938 263.1355 15.75262778  5840
STARLINK-37026          
1 68075U 26042G   26092.07314182  .00313456  00000+0  19642-2 0  9990
2 68075  53.1555  78.1547 0000876 272.3686  87.7234 15.75353830  5779
STARLINK-37023          
1 68076U 26042H   26092.25829566  .00254855  00000+0  16113-2 0  9995
2 68076  53.1561  77.1754 0001242  84.6204 275.4958 15.75321298  5800
STARLINK-37036          
1 68077U 26042J   26092.25862544  .00402534  00000+0  24984-2 0  9993
2 68077  53.1567  77.1774 0002409  22.0914 338.0210 15.75319340  5801
STARLINK-36973          
1 68078U 26042K   26092.23138999  .00371173  00000+0  23143-2 0  9992
2 68078  53.1579  76.9958 0001412 113.1639 246.9530 15.75303661  5806
STARLINK-37063          
1 68079U 26042L   26092.20711364  .00348352  00000+0  16874-2 0  9999
2 68079  53.1568  76.8362 0000984  87.5954 272.5181 15.81011870  5802
STARLINK-37051          
1 68080U 26042M   26092.10903983  .00287784  00000+0  18102-2 0  9997
2 68080  53.1582  77.6571 0000999 115.8791 244.2333 15.75342009  5787
STARLINK-37066          
1 68081U 26042N   26092.24921389  .00396049  00000+0  24584-2 0  9999
2 68081  53.1599  77.1153 0001339 109.6084 250.5081 15.75334718  5803
STARLINK-37054          
1 68082U 26042P   26092.25003472 -.01920663  00000+0 -12627-1 0  9997
2 68082  53.1581  76.5924 0001101 110.4395 148.0720 15.78203481  5846
STARLINK-37065          
1 68083U 26042Q   26092.12686480  .00388576  00000+0  24082-2 0  9997
2 68083  53.1589  77.7758 0001359 143.6213 216.4900 15.75393003  5785
STARLINK-37037          
1 68084U 26042R   26092.10870967  .00295748  00000+0  18575-2 0  9999
2 68084  53.1581  77.6555 0001872 152.3590 207.7530 15.75352970  5787
