[{"OBJECT_NAME":"STARLINK-36766","OBJECT_ID":"2026-042A","EPOCH":"2026-04-02T06:00:02.999808","MEAN_MOTION":15.75260866,"ECCENTRICITY":0.00013053,"INCLINATION":53.1589,"RA_OF_ASC_NODE":76.8487,"ARG_OF_PERICENTER":74.6915,"MEAN_ANOMALY":58.826,"EPHEMERIS_TYPE":0,"CLASSIFICATION_TYPE":"U","NORAD_CAT_ID":68069,"ELEMENT_SET_NO":999,"REV_AT_EPOCH":583,"BSTAR":-0.00048955035,"MEAN_MOTION_DOT":-0.00075091,"MEAN_MOTION_DDOT":0},{"OBJECT_NAME":"STARLINK-36823","OBJECT_ID":"2026-042B","EPOCH":"2026-04-01T06:21:21.324960","MEAN_MOTION":15.80941111,"ECCENTRICITY":0.00010822,"INCLINATION":53.1563,"RA_OF_ASC_NODE":81.6298,"ARG_OF_PERICENTER":38.4869,"MEAN_ANOMALY":321.623,"EPHEMERIS_TYPE":0,"CLASSIFICATION_TYPE":"U","NORAD_CAT_ID":68070,"ELEMENT_SET_NO":999,"REV_AT_EPOCH":565,"BSTAR":0.0012281634,"MEAN_MOTION_DOT":0.00249621,"MEAN_MOTION_DDOT":0},{"OBJECT_NAME":"STARLINK-36970","OBJECT_ID":"2026-042C","EPOCH":"2026-04-02T05:46:16.290912","MEAN_MOTION":15.75359469,"ECCENTRICITY":0.00013403,"INCLINATION":53.1585,"RA_OF_ASC_NODE":77.0574,"ARG_OF_PERICENTER":100.8648,"MEAN_ANOMALY":259.2524,"EPHEMERIS_TYPE":0,"CLASSIFICATION_TYPE":"U","NORAD_CAT_ID":68071,"ELEMENT_SET_NO":999,"REV_AT_EPOCH":580,"BSTAR":0.0024212535,"MEAN_MOTION_DOT":0.00390198,"MEAN_MOTION_DDOT":0},{"OBJECT_NAME":"STARLINK-36972","OBJECT_ID":"2026-042D","EPOCH":"2026-04-02T06:00:02.999808","MEAN_MOTION":15.75232426,"ECCENTRICITY":0.00011329,"INCLINATION":53.1597,"RA_OF_ASC_NODE":76.7465,"ARG_OF_PERICENTER":79.6515,"MEAN_ANOMALY":103.5158,"EPHEMERIS_TYPE":0,"CLASSIFICATION_TYPE":"U","NORAD_CAT_ID":68072,"ELEMENT_SET_NO":999,"REV_AT_EPOCH":584,"BSTAR":-0.00020127213,"MEAN_MOTION_DOT":-0.00031368,"MEAN_MOTION_DDOT":0},{"OBJECT_NAME":"STARLINK-37074","OBJECT_ID":"2026-042E","EPOCH":"2026-04-02T05:32:43.696320","MEAN_MOTION":15.75315107,"ECCENTRICITY":8.499e-5,"INCLINATION":53.1574,"RA_OF_ASC_NODE":76.9945,"ARG_OF_PERICENTER":102.4099,"MEAN_ANOMALY":257.7017,"EPHEMERIS_TYPE":0,"CLASSIFICATION_TYPE":"U","NORAD_CAT_ID":68073,"ELEMENT_SET_NO":999,"REV_AT_EPOCH":580,"BSTAR":0.0013514797,"MEAN_MOTION_DOT":0.00212519,"MEAN_MOTION_DDOT":0},{"OBJECT_NAME":"STARLINK-37045","OBJECT_ID":"2026-042F","EPOCH":"2026-04-02T06:00:02.999808","MEAN_MOTION":15.75262778,"ECCENTRICITY":0.00012912,"INCLINATION":53.1584,"RA_OF_ASC_NODE":77.1701,"ARG_OF_PERICENTER":73.9938,"MEAN_ANOMALY":263.1355,"EPHEMERIS_TYPE":0,"CLASSIFICATION_TYPE":"U","NORAD_CAT_ID":68074,"ELEMENT_SET_NO":999,"REV_AT_EPOCH":584,"BSTAR":-0.00064217879,"MEAN_MOTION_DOT":-0.00098048,"MEAN_MOTION_DDOT":0},{"OBJECT_NAME":"STARLINK-37026","OBJECT_ID":"2026-042G","EPOCH":"2026-04-02T01:45:19.453248","MEAN_MOTION":15.7535383,"ECCENTRICITY":8.767e-5,"INCLINATION":53.1555,"RA_OF_ASC_NODE":78.1547,"ARG_OF_PERICENTER":272.3686,"MEAN_ANOMALY":87.7234,"EPHEMERIS_TYPE":0,"CLASSIFICATION_TYPE":"U","NORAD_CAT_ID":68075,"ELEMENT_SET_NO":999,"REV_AT_EPOCH":577,"BSTAR":0.0019642374,"MEAN_MOTION_DOT":0.00313456,"MEAN_MOTION_DDOT":0},{"OBJECT_NAME":"STARLINK-37023","OBJECT_ID":"2026-042H","EPOCH":"2026-04-02T06:11:56.745024","MEAN_MOTION":15.75321298,"ECCENTRICITY":0.00012429,"INCLINATION":53.1561,"RA_OF_ASC_NODE":77.1754,"ARG_OF_PERICENTER":84.6204,"MEAN_ANOMALY":275.4958,"EPHEMERIS_TYPE":0,"CLASSIFICATION_TYPE":"U","NORAD_CAT_ID":68076,"ELEMENT_SET_NO":999,"REV_AT_EPOCH":580,"BSTAR":0.001611307,"MEAN_MOTION_DOT":0.00254855,"MEAN_MOTION_DDOT":0},{"OBJECT_NAME":"STARLINK-37036","OBJECT_ID":"2026-042J","EPOCH":"2026-04-02T06:12:25.238016","MEAN_MOTION":15.7531934,"ECCENTRICITY":0.00024098,"INCLINATION":53.1567,"RA_OF_ASC_NODE":77.1774,"ARG_OF_PERICENTER":22.0914,"MEAN_ANOMALY":338.021,"EPHEMERIS_TYPE":0,"CLASSIFICATION_TYPE":"U","NORAD_CAT_ID":68077,"ELEMENT_SET_NO":999,"REV_AT_EPOCH":580,"BSTAR":0.0024984001,"MEAN_MOTION_DOT":0.00402534,"MEAN_MOTION_DDOT":0},{"OBJECT_NAME":"STARLINK-36973","OBJECT_ID":"2026-042K","EPOCH":"2026-04-02T05:33:12.095136","MEAN_MOTION":15.75303661,"ECCENTRICITY":0.00014121,"INCLINATION":53.1579,"RA_OF_ASC_NODE":76.9958,"ARG_OF_PERICENTER":113.1639,"MEAN_ANOMALY":246.953,"EPHEMERIS_TYPE":0,"CLASSIFICATION_TYPE":"U","NORAD_CAT_ID":68078,"ELEMENT_SET_NO":999,"REV_AT_EPOCH":580,"BSTAR":0.0023142709,"MEAN_MOTION_DOT":0.00371173,"MEAN_MOTION_DDOT":0},{"OBJECT_NAME":"STARLINK-37063","OBJECT_ID":"2026-042L","EPOCH":"2026-04-02T04:58:14.618496","MEAN_MOTION":15.8101187,"ECCENTRICITY":9.845e-5,"INCLINATION":53.1568,"RA_OF_ASC_NODE":76.8362,"ARG_OF_PERICENTER":87.5954,"MEAN_ANOMALY":272.5181,"EPHEMERIS_TYPE":0,"CLASSIFICATION_TYPE":"U","NORAD_CAT_ID":68079,"ELEMENT_SET_NO":999,"REV_AT_EPOCH":580,"BSTAR":0.0016873764,"MEAN_MOTION_DOT":0.00348352,"MEAN_MOTION_DDOT":0},{"OBJECT_NAME":"STARLINK-37051","OBJECT_ID":"2026-042M","EPOCH":"2026-04-02T02:37:01.041312","MEAN_MOTION":15.75342009,"ECCENTRICITY":9.998e-5,"INCLINATION":53.1582,"RA_OF_ASC_NODE":77.6571,"ARG_OF_PERICENTER":115.8791,"MEAN_ANOMALY":244.2333,"EPHEMERIS_TYPE":0,"CLASSIFICATION_TYPE":"U","NORAD_CAT_ID":68080,"ELEMENT_SET_NO":999,"REV_AT_EPOCH":578,"BSTAR":0.0018101954,"MEAN_MOTION_DOT":0.00287784,"MEAN_MOTION_DDOT":0},{"OBJECT_NAME":"STARLINK-37066","OBJECT_ID":"2026-042N","EPOCH":"2026-04-02T05:58:52.080096","MEAN_MOTION":15.75334718,"ECCENTRICITY":0.00013396,"INCLINATION":53.1599,"RA_OF_ASC_NODE":77.1153,"ARG_OF_PERICENTER":109.6084,"MEAN_ANOMALY":250.5081,"EPHEMERIS_TYPE":0,"CLASSIFICATION_TYPE":"U","NORAD_CAT_ID":68081,"ELEMENT_SET_NO":999,"REV_AT_EPOCH":580,"BSTAR":0.0024584257,"MEAN_MOTION_DOT":0.00396049,"MEAN_MOTION_DDOT":0},{"OBJECT_NAME":"STARLINK-37054","OBJECT_ID":"2026-042P","EPOCH":"2026-04-02T06:00:02.999808","MEAN_MOTION":15.78203481,"ECCENTRICITY":0.00011011,"INCLINATION":53.1581,"RA_OF_ASC_NODE":76.5924,"ARG_OF_PERICENTER":110.4395,"MEAN_ANOMALY":148.072,"EPHEMERIS_TYPE":0,"CLASSIFICATION_TYPE":"U","NORAD_CAT_ID":68082,"ELEMENT_SET_NO":999,"REV_AT_EPOCH":584,"BSTAR":-0.012627078,"MEAN_MOTION_DOT":-0.01920663,"MEAN_MOTION_DDOT":0},{"OBJECT_NAME":"STARLINK-37065","OBJECT_ID":"2026-042Q","EPOCH":"2026-04-02T03:02:41.118720","MEAN_MOTION":15.75393003,"ECCENTRICITY":0.0001359,"INCLINATION":53.1589,"RA_OF_ASC_NODE":77.7758,"ARG_OF_PERICENTER":143.6213,"MEAN_ANOMALY":216.49,"EPHEMERIS_TYPE":0,"CLASSIFICATION_TYPE":"U","NORAD_CAT_ID":68083,"ELEMENT_SET_NO":999,"REV_AT_EPOCH":578,"BSTAR":0.0024081601,"MEAN_MOTION_DOT":0.00388576,"MEAN_MOTION_DDOT":0},{"OBJECT_NAME":"STARLINK-37037","OBJECT_ID":"2026-042R","EPOCH":"2026-04-02T02:36:32.515488","MEAN_MOTION":15.7535297,"ECCENTRICITY":0.0001872,"INCLINATION":53.1581,"RA_OF_ASC_NODE":77.6555,"ARG_OF_PERICENTER":152.359,"MEAN_ANOMALY":207.753,"EPHEMERIS_TYPE":0,"CLASSIFICATION_TYPE":"U","NORAD_CAT_ID":68084,"ELEMENT_SET_NO":999,"REV_AT_EPOCH":578,"BSTAR":0.0018575448,"MEAN_MOTION_DOT":0.00295748,"MEAN_MOTION_DDOT":0}]
